{
  "type": "FeatureCollection",
  "features": [
    {
      "type": "Feature",
      "properties": {
        "norad_id": 30494,
        "name": "FENGYUN 1C DEB",
        "group": "fengyun-1c-debris",
        "lat": 55.57843819069748,
        "lon": -147.75714626906606,
        "alt_km": 1002.6823452810695,
        "timestamp": "2025-12-08T23:34:04.246193+00:00",
        "meta_object_name": "FENGYUN 1C DEB",
        "meta_object_id": "1999-025AHG",
        "meta_epoch": "2025-12-07T01:41:28.106016",
        "meta_mean_motion": 13.793444,
        "meta_eccentricity": 0.01856403,
        "meta_inclination": 99.2827,
        "meta_ra_of_asc_node": 16.5615,
        "meta_arg_of_pericenter": 237.1866,
        "meta_mean_anomaly": 121.1289,
        "meta_ephemeris_type": 0,
        "meta_classification_type": "U",
        "meta_norad_cat_id": 30494,
        "meta_element_set_no": 999,
        "meta_rev_at_epoch": 94408,
        "meta_bstar": 0.0022953842,
        "meta_mean_motion_dot": 2.638e-05,
        "meta_mean_motion_ddot": 0,
        "tle_line1": "1 30494U 99025AHG 25341.07046419  .00002638  00000+0  22954-2 0  9993",
        "tle_line2": "2 30494  99.2827  16.5615 0185640 237.1866 121.1289 13.79344400944084"
      },
      "geometry": {
        "type": "Point",
        "coordinates": [
          -147.75714626906606,
          55.57843819069748
        ]
      }
    },
    {
      "type": "Feature",
      "properties": {
        "norad_id": 30495,
        "name": "FENGYUN 1C DEB",
        "group": "fengyun-1c-debris",
        "lat": -1.5899191921871838,
        "lon": -109.04227287989752,
        "alt_km": 1282.2827834314276,
        "timestamp": "2025-12-08T23:34:04.246203+00:00",
        "meta_object_name": "FENGYUN 1C DEB",
        "meta_object_id": "1999-025AHH",
        "meta_epoch": "2025-12-07T16:52:58.296000",
        "meta_mean_motion": 12.94355342,
        "meta_eccentricity": 0.05967428,
        "meta_inclination": 102.2606,
        "meta_ra_of_asc_node": 69.8716,
        "meta_arg_of_pericenter": 276.9515,
        "meta_mean_anomaly": 76.4096,
        "meta_ephemeris_type": 0,
        "meta_classification_type": "U",
        "meta_norad_cat_id": 30495,
        "meta_element_set_no": 999,
        "meta_rev_at_epoch": 88608,
        "meta_bstar": 0.0054623354,
        "meta_mean_motion_dot": 3.361e-05,
        "meta_mean_motion_ddot": 0,
        "tle_line1": "1 30495U 99025AHH 25341.70345250  .00003361  00000+0  54623-2 0  9991",
        "tle_line2": "2 30495 102.2606  69.8716 0596742 276.9515  76.4096 12.94355342886085"
      },
      "geometry": {
        "type": "Point",
        "coordinates": [
          -109.04227287989752,
          -1.5899191921871838
        ]
      }
    },
    {
      "type": "Feature",
      "properties": {
        "norad_id": 30496,
        "name": "FENGYUN 1C DEB",
        "group": "fengyun-1c-debris",
        "lat": -62.86346808486871,
        "lon": 50.82170365467526,
        "alt_km": 655.2483208764115,
        "timestamp": "2025-12-08T23:34:04.246214+00:00",
        "meta_object_name": "FENGYUN 1C DEB",
        "meta_object_id": "1999-025AHJ",
        "meta_epoch": "2025-12-08T06:25:02.070048",
        "meta_mean_motion": 14.94168932,
        "meta_eccentricity": 0.01301407,
        "meta_inclination": 98.7828,
        "meta_ra_of_asc_node": 247.5799,
        "meta_arg_of_pericenter": 111.7663,
        "meta_mean_anomaly": 249.7462,
        "meta_ephemeris_type": 0,
        "meta_classification_type": "U",
        "meta_norad_cat_id": 30496,
        "meta_element_set_no": 999,
        "meta_rev_at_epoch": 1077,
        "meta_bstar": 0.00063322731,
        "meta_mean_motion_dot": 7.945e-05,
        "meta_mean_motion_ddot": 0,
        "tle_line1": "1 30496U 99025AHJ 25342.26738507  .00007945  00000+0  63323-3 0  9995",
        "tle_line2": "2 30496  98.7828 247.5799 0130140 111.7663 249.7462 14.94168932 10779"
      },
      "geometry": {
        "type": "Point",
        "coordinates": [
          50.82170365467526,
          -62.86346808486871
        ]
      }
    },
    {
      "type": "Feature",
      "properties": {
        "norad_id": 30498,
        "name": "FENGYUN 1C DEB",
        "group": "fengyun-1c-debris",
        "lat": 64.74998413411487,
        "lon": -125.78288269750107,
        "alt_km": 819.6906223722117,
        "timestamp": "2025-12-08T23:34:04.246234+00:00",
        "meta_object_name": "FENGYUN 1C DEB",
        "meta_object_id": "1999-025AHL",
        "meta_epoch": "2025-12-08T09:25:18.244128",
        "meta_mean_motion": 14.0602458,
        "meta_eccentricity": 0.01048685,
        "meta_inclination": 99.2369,
        "meta_ra_of_asc_node": 33.4324,
        "meta_arg_of_pericenter": 167.561,
        "meta_mean_anomaly": 205.1056,
        "meta_ephemeris_type": 0,
        "meta_classification_type": "U",
        "meta_norad_cat_id": 30498,
        "meta_element_set_no": 999,
        "meta_rev_at_epoch": 95708,
        "meta_bstar": 0.0024232485,
        "meta_mean_motion_dot": 4.133e-05,
        "meta_mean_motion_ddot": 0,
        "tle_line1": "1 30498U 99025AHL 25342.39257227  .00004133  00000+0  24232-2 0  9997",
        "tle_line2": "2 30498  99.2369  33.4324 0104868 167.5610 205.1056 14.06024580957084"
      },
      "geometry": {
        "type": "Point",
        "coordinates": [
          -125.78288269750107,
          64.74998413411487
        ]
      }
    },
    {
      "type": "Feature",
      "properties": {
        "norad_id": 30500,
        "name": "FENGYUN 1C DEB",
        "group": "fengyun-1c-debris",
        "lat": 72.49526997825718,
        "lon": 43.906539890245895,
        "alt_km": 771.8870323056972,
        "timestamp": "2025-12-08T23:34:04.246244+00:00",
        "meta_object_name": "FENGYUN 1C DEB",
        "meta_object_id": "1999-025AHN",
        "meta_epoch": "2025-12-07T12:25:41.904768",
        "meta_mean_motion": 14.25099595,
        "meta_eccentricity": 0.00654132,
        "meta_inclination": 99.0728,
        "meta_ra_of_asc_node": 72.8338,
        "meta_arg_of_pericenter": 131.1513,
        "meta_mean_anomaly": 356.9607,
        "meta_ephemeris_type": 0,
        "meta_classification_type": "U",
        "meta_norad_cat_id": 30500,
        "meta_element_set_no": 999,
        "meta_rev_at_epoch": 96607,
        "meta_bstar": 0.0042895553,
        "meta_mean_motion_dot": 0.00010254,
        "meta_mean_motion_ddot": 0,
        "tle_line1": "1 30500U 99025AHN 25341.51784612  .00010254  00000+0  42896-2 0  9994",
        "tle_line2": "2 30500  99.0728  72.8338 0065413 131.1513 356.9607 14.25099595966073"
      },
      "geometry": {
        "type": "Point",
        "coordinates": [
          43.906539890245895,
          72.49526997825718
        ]
      }
    },
    {
      "type": "Feature",
      "properties": {
        "norad_id": 30501,
        "name": "FENGYUN 1C DEB",
        "group": "fengyun-1c-debris",
        "lat": 20.3519398703371,
        "lon": -29.74754621796539,
        "alt_km": 835.81479341669,
        "timestamp": "2025-12-08T23:34:04.246255+00:00",
        "meta_object_name": "FENGYUN 1C DEB",
        "meta_object_id": "1999-025AHP",
        "meta_epoch": "2025-12-08T12:15:53.499168",
        "meta_mean_motion": 14.25291311,
        "meta_eccentricity": 0.00405703,
        "meta_inclination": 99.0838,
        "meta_ra_of_asc_node": 333.1673,
        "meta_arg_of_pericenter": 215.2536,
        "meta_mean_anomaly": 270.2099,
        "meta_ephemeris_type": 0,
        "meta_classification_type": "U",
        "meta_norad_cat_id": 30501,
        "meta_element_set_no": 999,
        "meta_rev_at_epoch": 96859,
        "meta_bstar": 0.0025399271,
        "meta_mean_motion_dot": 5.987e-05,
        "meta_mean_motion_ddot": 0,
        "tle_line1": "1 30501U 99025AHP 25342.51103587  .00005987  00000+0  25399-2 0  9998",
        "tle_line2": "2 30501  99.0838 333.1673 0040570 215.2536 270.2099 14.25291311968599"
      },
      "geometry": {
        "type": "Point",
        "coordinates": [
          -29.74754621796539,
          20.3519398703371
        ]
      }
    },
    {
      "type": "Feature",
      "properties": {
        "norad_id": 30503,
        "name": "FENGYUN 1C DEB",
        "group": "fengyun-1c-debris",
        "lat": 0.6660293052162182,
        "lon": -173.73216486232576,
        "alt_km": 840.5209180482152,
        "timestamp": "2025-12-08T23:34:04.246265+00:00",
        "meta_object_name": "FENGYUN 1C DEB",
        "meta_object_id": "1999-025AHR",
        "meta_epoch": "2025-12-08T11:59:19.008384",
        "meta_mean_motion": 14.16118386,
        "meta_eccentricity": 0.00083443,
        "meta_inclination": 99.2047,
        "meta_ra_of_asc_node": 185.8775,
        "meta_arg_of_pericenter": 279.6543,
        "meta_mean_anomaly": 142.7675,
        "meta_ephemeris_type": 0,
        "meta_classification_type": "U",
        "meta_norad_cat_id": 30503,
        "meta_element_set_no": 999,
        "meta_rev_at_epoch": 97286,
        "meta_bstar": 0.00049899875,
        "meta_mean_motion_dot": 9.39e-06,
        "meta_mean_motion_ddot": 0,
        "tle_line1": "1 30503U 99025AHR 25342.49952556  .00000939  00000+0  49900-3 0  9992",
        "tle_line2": "2 30503  99.2047 185.8775 0008344 279.6543 142.7675 14.16118386972863"
      },
      "geometry": {
        "type": "Point",
        "coordinates": [
          -173.73216486232576,
          0.6660293052162182
        ]
      }
    }
  ]
}